[{"OBJECT_NAME":"YAOGAN-2","OBJECT_ID":"2007-019A","EPOCH":"2026-03-09T14:35:50.831808","MEAN_MOTION":14.82510137,"ECCENTRICITY":0.001955,"INCLINATION":98.2784,"RA_OF_ASC_NODE":285.8374,"ARG_OF_PERICENTER":233.2135,"MEAN_ANOMALY":126.7283,"EPHEMERIS_TYPE":0,"CLASSIFICATION_TYPE":"U","NORAD_CAT_ID":31490,"ELEMENT_SET_NO":999,"REV_AT_EPOCH":1286,"BSTAR":0.00014435,"MEAN_MOTION_DOT":1.104e-5,"MEAN_MOTION_DDOT":0},{"OBJECT_NAME":"FENGYUN 1C DEB","OBJECT_ID":"1999-025CCU","EPOCH":"2026-03-09T04:16:51.250080","MEAN_MOTION":14.7380712,"ECCENTRICITY":0.02770831,"INCLINATION":98.1363,"RA_OF_ASC_NODE":145.1449,"ARG_OF_PERICENTER":173.2574,"MEAN_ANOMALY":217.8544,"EPHEMERIS_TYPE":0,"CLASSIFICATION_TYPE":"U","NORAD_CAT_ID":31686,"ELEMENT_SET_NO":999,"REV_AT_EPOCH":99091,"BSTAR":0.001175879,"MEAN_MOTION_DOT":0.00014291,"MEAN_MOTION_DDOT":0}]
